[{"OBJECT_NAME":"COSMOS 2597 (RODNIK-S 22)","OBJECT_ID":"2025-273A","EPOCH":"2026-03-09T21:46:58.251360","MEAN_MOTION":12.42896743,"ECCENTRICITY":0.00124298,"INCLINATION":82.4965,"RA_OF_ASC_NODE":232.2436,"ARG_OF_PERICENTER":77.3959,"MEAN_ANOMALY":282.851,"EPHEMERIS_TYPE":0,"CLASSIFICATION_TYPE":"U","NORAD_CAT_ID":66647,"ELEMENT_SET_NO":999,"REV_AT_EPOCH":1296,"BSTAR":0.0001853085,"MEAN_MOTION_DOT":3.6e-7,"MEAN_MOTION_DDOT":0},{"OBJECT_NAME":"DELTA 1 DEB","OBJECT_ID":"1975-052EC","EPOCH":"2026-03-09T06:27:13.341024","MEAN_MOTION":12.94858716,"ECCENTRICITY":0.02647983,"INCLINATION":99.6979,"RA_OF_ASC_NODE":352.7333,"ARG_OF_PERICENTER":282.5168,"MEAN_ANOMALY":235.5144,"EPHEMERIS_TYPE":0,"CLASSIFICATION_TYPE":"U","NORAD_CAT_ID":21444,"ELEMENT_SET_NO":999,"REV_AT_EPOCH":64395,"BSTAR":0.0020203376,"MEAN_MOTION_DOT":6.24e-6,"MEAN_MOTION_DDOT":0}]
